CTC2_L_00051016-03
1 10062U 26924NU  26075.70040509  .00000000  00000+0  00000-0 0  9996
2 10062  65.0000 180.0000 0000000   0.0000   0.0000 15.48880433    16
CTC2_L_00051016-04
1 10063U 22504VK  26075.70040509  .00000000  00000+0  00000-0 0  9997
2 10063  65.0000 180.0000 0000000   0.0000  90.0000 15.48880433    16
CTC2_L_00051017-01
1 10064U 25462MA  26075.70040509  .00000000  00000+0  00000-0 0  9994
2 10064  65.0000 192.0000 0000000   0.0000 192.0000 15.48880433    13
CTC2_L_00051017-02
1 10065U 23614YJ  26075.70040509  .00000000  00000+0  00000-0 0  9992
2 10065  65.0000 192.0000 0000000   0.0000 282.0000 15.48880433    14
CTC2_L_00051017-03
1 10066U 26528ZF  26075.70040509  .00000000  00000+0  00000-0 0  9990
2 10066  65.0000 192.0000 0000000   0.0000  12.0000 15.48880433    16
CTC2_L_00051017-04
1 10067U 23051UP  26075.70040509  .00000000  00000+0  00000-0 0  9999
2 10067  65.0000 192.0000 0000000   0.0000 102.0000 15.48880433    17
CTC2_L_00051018-01
1 10068U 26958XY  26075.70040509  .00000000  00000+0  00000-0 0  9999
2 10068  65.0000 204.0000 0000000   0.0000 204.0000 15.48880433    15
CTC2_L_00051018-02
1 10069U 23380OZ  26075.70040509  .00000000  00000+0  00000-0 0  9996
2 10069  65.0000 204.0000 0000000   0.0000 294.0000 15.48880433    15
CTC2_L_00051018-03
1 10070U 25436GJ  26075.70040509  .00000000  00000+0  00000-0 0  9992
2 10070  65.0000 204.0000 0000000   0.0000  24.0000 15.48880433    18
CTC2_L_00051018-04
1 10071U 25801LE  26075.70040509  .00000000  00000+0  00000-0 0  9999
2 10071  65.0000 204.0000 0000000   0.0000 114.0000 15.48880433    19
CTC2_L_00051019-01
1 10072U 24406AK  26075.70040509  .00000000  00000+0  00000-0 0  9990
2 10072  65.0000 216.0000 0000000   0.0000 216.0000 15.48880433    16
CTC2_L_00051019-02
1 10073U 25500QU  26075.70040509  .00000000  00000+0  00000-0 0  9997
2 10073  65.0000 216.0000 0000000   0.0000 306.0000 15.48880433    17
CTC2_L_00051019-03
1 10074U 22960MN  26075.70040509  .00000000  00000+0  00000-0 0  9995
2 10074  65.0000 216.0000 0000000   0.0000  36.0000 15.48880433    18
CTC2_L_00051019-04
1 10075U 26332PG  26075.70040509  .00000000  00000+0  00000-0 0  9993
2 10075  65.0000 216.0000 0000000   0.0000 126.0000 15.48880433    19
CTC2_L_00051020-01
1 10076U 23381V   26075.70040509  .00000000  00000+0  00000-0 0  9995
2 10076  65.0000 228.0000 0000000   0.0000 228.0000 15.48880433    16
CTC2_L_00051020-02
1 10077U 23540WZ  26075.70040509  .00000000  00000+0  00000-0 0  9993
2 10077  65.0000 228.0000 0000000   0.0000 318.0000 15.48880433    17
CTC2_L_00051020-03
1 10078U 25539QI  26075.70040509  .00000000  00000+0  00000-0 0  9994
2 10078  65.0000 228.0000 0000000   0.0000  48.0000 15.48880433    18
CTC2_L_00051020-04
1 10079U 24808JU  26075.70040509  .00000000  00000+0  00000-0 0  9993
2 10079  65.0000 228.0000 0000000   0.0000 138.0000 15.48880433    19
CTC2_L_00051021-01
1 10080U 26395YT  26075.70040509  .00000000  00000+0  00000-0 0  9998
2 10080  65.0000 240.0000 0000000   0.0000 240.0000 15.48880433    19
CTC2_L_00051021-02
1 10081U 22124PW  26075.70040509  .00000000  00000+0  00000-0 0  9995
2 10081  65.0000 240.0000 0000000   0.0000 330.0000 15.48880433    10
CTC2_L_00051021-03
1 10082U 24019NM  26075.70040509  .00000000  00000+0  00000-0 0  9991
2 10082  65.0000 240.0000 0000000   0.0000  60.0000 15.48880433    11
CTC2_L_00051021-04
1 10083U 26273BB  26075.70040509  .00000000  00000+0  00000-0 0  9996
2 10083  65.0000 240.0000 0000000   0.0000 150.0000 15.48880433    12
CTC2_L_00051022-01
1 10084U 22778TL  26075.70040509  .00000000  00000+0  00000-0 0  9993
2 10084  65.0000 252.0000 0000000   0.0000 252.0000 15.48880433    19
CTC2_L_00051022-02
1 10085U 25525LU  26075.70040509  .00000000  00000+0  00000-0 0  9997
2 10085  65.0000 252.0000 0000000   0.0000 342.0000 15.48880433    10
CTC2_L_00051022-03
1 10086U 24317AZ  26075.70040509  .00000000  00000+0  00000-0 0  9996
2 10086  65.0000 252.0000 0000000   0.0000  72.0000 15.48880433    11
CTC2_L_00051022-04
1 10087U 26526TN  26075.70040509  .00000000  00000+0  00000-0 0  9991
2 10087  65.0000 252.0000 0000000   0.0000 162.0000 15.48880433    12
CTC2_L_00051023-01
1 10088U 23470CH  26075.70040509  .00000000  00000+0  00000-0 0  9997
2 10088  65.0000 264.0000 0000000   0.0000 264.0000 15.48880433    19
CTC2_L_00051023-02
1 10089U 24901UP  26075.70040509  .00000000  00000+0  00000-0 0  9998
2 10089  65.0000 264.0000 0000000   0.0000 354.0000 15.48880433    10
CTC2_L_00051023-03
1 10090U 23835ZH  26075.70040509  .00000000  00000+0  00000-0 0  9995
2 10090  65.0000 264.0000 0000000   0.0000  84.0000 15.48880433    12
CTC2_L_00051023-04
1 10091U 26631MH  26075.70040509  .00000000  00000+0  00000-0 0  9993
2 10091  65.0000 264.0000 0000000   0.0000 174.0000 15.48880433    13
CTC2_L_00051024-01
1 10092U 24209T   26075.70040509  .00000000  00000+0  00000-0 0  9993
2 10092  65.0000 276.0000 0000000   0.0000 276.0000 15.48880433    10
CTC2_L_00051024-02
1 10093U 25516DB  26075.70040509  .00000000  00000+0  00000-0 0  9996
2 10093  65.0000 276.0000 0000000   0.0000   6.0000 15.48880433    12
CTC2_L_00051024-03
1 10094U 26723LI  26075.70040509  .00000000  00000+0  00000-0 0  9998
2 10094  65.0000 276.0000 0000000   0.0000  96.0000 15.48880433    12
CTC2_L_00051024-04
1 10095U 26715EJ  26075.70040509  .00000000  00000+0  00000-0 0  9990
2 10095  65.0000 276.0000 0000000   0.0000 186.0000 15.48880433    13
CTC2_L_00051025-01
1 10096U 24405UN  26075.70040509  .00000000  00000+0  00000-0 0  9995
2 10096  65.0000 288.0000 0000000   0.0000 288.0000 15.48880433    10
CTC2_L_00051025-02
1 10097U 23312HX  26075.70040509  .00000000  00000+0  00000-0 0  9992
2 10097  65.0000 288.0000 0000000   0.0000  18.0000 15.48880433    12
CTC2_L_00051025-03
1 10098U 26725VN  26075.70040509  .00000000  00000+0  00000-0 0  9994
2 10098  65.0000 288.0000 0000000   0.0000 108.0000 15.48880433    13
CTC2_L_00051025-04
1 10099U 25314YO  26075.70040509  .00000000  00000+0  00000-0 0  9998
2 10099  65.0000 288.0000 0000000   0.0000 198.0000 15.48880433    13
CTC2_L_00051026-01
1 10100U 24744IL  26075.70040509  .00000000  00000+0  00000-0 0  9997
2 10100  65.0000 300.0000 0000000   0.0000 300.0000 15.48880433    16
CTC2_L_00051026-02
1 10101U 26377SG  26075.70040509  .00000000  00000+0  00000-0 0  9992
2 10101  65.0000 300.0000 0000000   0.0000  30.0000 15.48880433    17
CTC2_L_00051026-03
1 10102U 26616LZ  26075.70040509  .00000000  00000+0  00000-0 0  9999
2 10102  65.0000 300.0000 0000000   0.0000 120.0000 15.48880433    18
CTC2_L_00051026-04
1 10103U 23176PY  26075.70040509  .00000000  00000+0  00000-0 0  9998
2 10103  65.0000 300.0000 0000000   0.0000 210.0000 15.48880433    19
CTC2_L_00051027-01
1 10104U 25615JT  26075.70040509  .00000000  00000+0  00000-0 0  9999
2 10104  65.0000 312.0000 0000000   0.0000 312.0000 15.48880433    16
CTC2_L_00051027-02
1 10105U 23578DP  26075.70040509  .00000000  00000+0  00000-0 0  9996
2 10105  65.0000 312.0000 0000000   0.0000  42.0000 15.48880433    17
CTC2_L_00051027-03
1 10106U 25775RN  26075.70040509  .00000000  00000+0  00000-0 0  9998
2 10106  65.0000 312.0000 0000000   0.0000 132.0000 15.48880433    18
CTC2_L_00051027-04
1 10107U 26074MN  26075.70040509  .00000000  00000+0  00000-0 0  9992
2 10107  65.0000 312.0000 0000000   0.0000 222.0000 15.48880433    19
CTC2_L_00051028-01
1 10108U 22084IS  26075.70040509  .00000000  00000+0  00000-0 0  9990
2 10108  65.0000 324.0000 0000000   0.0000 324.0000 15.48880433    16
CTC2_L_00051028-02
1 10109U 22313JH  26075.70040509  .00000000  00000+0  00000-0 0  9996
2 10109  65.0000 324.0000 0000000   0.0000  54.0000 15.48880433    17
CTC2_L_00051028-03
1 10110U 23707OD  26075.70040509  .00000000  00000+0  00000-0 0  9996
2 10110  65.0000 324.0000 0000000   0.0000 144.0000 15.48880433    19
CTC2_L_00051028-04
1 10111U 23366UR  26075.70040509  .00000000  00000+0  00000-0 0  9998
2 10111  65.0000 324.0000 0000000   0.0000 234.0000 15.48880433    10
CTC2_L_00051029-01
1 10112U 25823WR  26075.70040509  .00000000  00000+0  00000-0 0  9999
2 10112  65.0000 336.0000 0000000   0.0000 336.0000 15.48880433    17
CTC2_L_00051029-02
1 10113U 24556WY  26075.70040509  .00000000  00000+0  00000-0 0  9992
2 10113  65.0000 336.0000 0000000   0.0000  66.0000 15.48880433    18
CTC2_L_00051029-03
1 10114U 24889ML  26075.70040509  .00000000  00000+0  00000-0 0  9992
2 10114  65.0000 336.0000 0000000   0.0000 156.0000 15.48880433    19
CTC2_L_00051029-04
1 10115U 23046TA  26075.70040509  .00000000  00000+0  00000-0 0  9997
2 10115  65.0000 336.0000 0000000   0.0000 246.0000 15.48880433    10
CTC2_L_00051030-01
1 10116U 24737WH  26075.70040509  .00000000  00000+0  00000-0 0  9996
2 10116  65.0000 348.0000 0000000   0.0000 348.0000 15.48880433    17
CTC2_L_00051030-02
1 10117U 24489LE  26075.70040509  .00000000  00000+0  00000-0 0  9991
2 10117  65.0000 348.0000 0000000   0.0000  78.0000 15.48880433    18
CTC2_L_00051030-03
1 10118U 22296SM  26075.70040509  .00000000  00000+0  00000-0 0  9996
2 10118  65.0000 348.0000 0000000   0.0000 168.0000 15.48880433    19
CTC2_L_00051030-04
1 10119U 23996CH  26075.70040509  .00000000  00000+0  00000-0 0  9995
2 10119  65.0000 348.0000 0000000   0.0000 258.0000 15.48880433    10
